[{"OBJECT_NAME":"SKYKRAFT-1A","OBJECT_ID":"2023-001AX","EPOCH":"2026-03-09T17:03:19.828224","MEAN_MOTION":15.28083228,"ECCENTRICITY":0.00112767,"INCLINATION":97.3349,"RA_OF_ASC_NODE":127.629,"ARG_OF_PERICENTER":121.5092,"MEAN_ANOMALY":238.7251,"EPHEMERIS_TYPE":0,"CLASSIFICATION_TYPE":"U","NORAD_CAT_ID":55054,"ELEMENT_SET_NO":999,"REV_AT_EPOCH":17652,"BSTAR":0.0003006872,"MEAN_MOTION_DOT":8.177e-5,"MEAN_MOTION_DDOT":0},{"OBJECT_NAME":"STARLINK-32197","OBJECT_ID":"2024-141U","EPOCH":"2026-03-09T17:24:45.654624","MEAN_MOTION":15.30188333,"ECCENTRICITY":0.0001232,"INCLINATION":53.1603,"RA_OF_ASC_NODE":232.6289,"ARG_OF_PERICENTER":87.7973,"MEAN_ANOMALY":272.3169,"EPHEMERIS_TYPE":0,"CLASSIFICATION_TYPE":"U","NORAD_CAT_ID":60416,"ELEMENT_SET_NO":999,"REV_AT_EPOCH":8966,"BSTAR":1.9463388e-5,"MEAN_MOTION_DOT":2.17e-6,"MEAN_MOTION_DDOT":0}]
