SKYKRAFT-1A             
1 55054U 23001AX  26068.71064616  .00008177  00000+0  30069-3 0  9991
2 55054  97.3349 127.6290 0011277 121.5092 238.7251 15.28083228176529
STARLINK-32197          
1 60416U 24141U   26068.72552841  .00000217  00000+0  19463-4 0  9991
2 60416  53.1603 232.6289 0001232  87.7973 272.3169 15.30188333 89662
